KUIPER-00061            
1 64521U 25134X   25358.33336806 -.00001061  00000+0 -11225-3 0  9991
2 64521  51.8990 201.2612 0004631  42.7349 308.3479 14.79145465  3934
KUIPER-00062            
1 64522U 25134Y   25357.98874433  .00003330  00000+0  41270-3 0  9997
2 64522  51.8953 207.3903 0007451  48.3592 311.8009 14.85062427 28870
KUIPER-00063            
1 64523U 25134Z   25358.33336806  .00027127  00000+0  36830-2 0  9990
2 64523  51.8997 211.2956 0000302  77.4814 312.8768 14.78650694  4170
KUIPER-00064            
1 64524U 25134AA  25357.99403606  .00003358  00000+0  46988-3 0  9991
2 64524  51.9019 210.2281 0008160 101.3328 258.8551 14.79875984 28834
KUIPER-00065            
1 64525U 25134AB  25358.33336806 -.00017913  00000+0 -22243-2 0  9999
2 64525  51.9002 213.9871 0011683  33.9261 308.5624 14.81751996  3692
KUIPER-00066            
1 64526U 25134AC  25357.87357692  .00016887  00000+0  76087-3 0  9997
2 64526  51.8916 182.1726 0000376 108.8404 251.2617 15.21151286 29213
KUIPER-00069            
1 64816U 25151A   25358.14779378  .00005246  00000+0  72246-3 0  9998
2 64816  51.9005 254.6560 0005651  44.0880 316.0532 14.79585505 25574
KUIPER-00070            
1 64817U 25151B   25358.15491620  .00005876  00000+0  79787-3 0  9997
2 64817  51.8992 279.5799 0010939   6.8924 353.2187 14.79978410 25232
